#aV2007  1 17  0  0   .00000000      96 DD+AD WGS84 FIT  NGA
## 1410 259200.00000000   900.00000000 54117  .0000000000000
+   30     1  2  3  4  5  6  7  8  9 10 11 12 13 14 16 17 18
+         19 20 21 22 23 24 25 26 27 28 29 30 31  0  0  0  0
+          0  0  0  0  0  0  0  0  0  0  0  0  0  0  0  0  0
+          0  0  0  0  0  0  0  0  0  0  0  0  0  0  0  0  0
+          0  0  0  0  0  0  0  0  0  0  0  0  0  0  0  0  0
++         0  0  0  0  0  0  0  0  0  0  0  0  0  0  0  0  0
++         0  0  0  0  0  0  0  0  0  0  0  0  0  0  0  0  0
++         0  0  0  0  0  0  0  0  0  0  0  0  0  0  0  0  0
++         0  0  0  0  0  0  0  0  0  0  0  0  0  0  0  0  0
++         0  0  0  0  0  0  0  0  0  0  0  0  0  0  0  0  0
%c cc cc ccc ccc cccc cccc cccc cccc ccccc ccccc ccccc ccccc
%c cc cc ccc ccc cccc cccc cccc cccc ccccc ccccc ccccc ccccc
%f  0.0000000  0.000000000  0.00000000000  0.000000000000000
%f  0.0000000  0.000000000  0.00000000000  0.000000000000000
%i    0    0    0    0      0      0      0      0         0
%i    0    0    0    0      0      0      0      0         0
/*      NGA, ST. LOUIS,MO.                                  
/*   EPHEMERIS COMPUTED FROM  3 DAYS OF DATA                
/* CCCCCCCCCCCCCCCCCCCCCCCCCCCCCCCCCCCCCCCCCCCCCCCCCCCCCCCCC
/* CCCCCCCCCCCCCCCCCCCCCCCCCCCCCCCCCCCCCCCCCCCCCCCCCCCCCCCCC
*  2007  1 17 10  0   .00000000                                                 
P  1  14411.676605 -19460.305334 -10631.364965    101.991716                    
V  1  -2991.500356  13584.294285 -28421.726406       .024265                    
P  2 -19313.853140  13318.661207  11974.971895     74.055875                    
V  2 -15949.341515    690.526598 -26229.991662       .034331                    
P  3  11014.234534 -22427.328910   8310.946525      -.850648                    
V  3   1621.941089  11544.376479  28644.404024       .060150                    
P  4 -26208.348034   5417.406308   -180.352497    355.112815                    
V  4   -456.096373  -2905.275391 -31208.819955       .027324                    
P  5  11008.350946  21440.605161 -11561.021676     11.637579                    
V  5 -12460.643980  -7585.139898 -26309.655587       .132157                    
P  6   9498.985834  16895.615828  18320.911293    449.931838                    
V  6  -7834.214810  21713.427752 -16177.559429      -.232474                    
P  7  11423.308407  14266.400741  19583.422191    444.065211                    
V  7  -7172.510303  23231.657331 -13051.035516      -.108885                    
P  8 -25013.684476  -1826.633194   9263.316121    -93.413958                    
V  8  11272.636556  -3869.702345  28868.107662      -.011963                    
P  9   -953.499101  15912.769678 -21793.352620     53.512297                    
V  9 -25586.785046   6287.719141   6101.624691       .015811                    
P 10  -7113.456890  13940.027163  21308.048455     96.028192                    
V 10 -18633.671575 -19996.118623   7142.420373       .005618                    
P 11  -2713.798356 -16687.262543 -20553.554225      3.890711                    
V 11  24612.629010  -9075.713672   4429.465604       .014734                    
P 12   9367.583888  21932.632397 -11626.356767    -62.773639                    
V 12 -11906.620702  -9283.991562 -26824.233341       .062337                    
P 13  -8986.201906 -14498.480826  20282.104975    133.672443                    
V 13   9088.447907 -24220.104748 -13183.996212       .040035                    
P 14  15839.450991  -4289.072309 -20784.321241      5.017167                    
V 14  -7578.724005  25433.783140 -11044.831764       .012529                    
P 16  12009.139606  -9359.995217  21845.740242    113.175323                    
V 16  18434.635206  20453.941704  -1250.440595       .038277                    
P 17 -16367.777822   4280.210879 -20452.586267     82.165187                    
V 17   6792.274842 -25109.997205 -10808.559706      -.012819                    
P 18  19882.462503  16781.498799  -5997.932392   -253.891548                    
V 18   3005.419812   7587.714858  30200.974202      -.000134                    
P 19   7889.277162 -25202.461400  -2213.064352     57.598930                    
V 19   3851.901648  -1676.222012  31571.763092       .044238                    
P 20 -11392.273448 -22002.630421  -9719.201880    -22.022514                    
V 20  10315.271979   7037.636756 -28250.977019      -.001029                    
P 21  21517.328568   6689.833937  14578.575694     68.663195                    
V 21 -17449.605214   5540.888280  22811.334276       .011638                    
P 22  20149.364590   6381.257830 -15936.724153    162.450264                    
V 22  11595.775332  17089.505911  21273.871250       .024227                    
P 23  -2251.074495 -22917.768166  12985.434374    146.288297                    
V 23   7014.255077 -15286.921332 -25792.926546       .013840                    
P 24  -6740.676574  15839.217395  20520.926898     69.360020                    
V 24 -25282.728327   3565.674682 -10865.014453       .032546                    
P 25  23219.959408 -11927.911834   5781.159869    380.141986                    
V 25   7284.321267    366.991353 -30450.158839      -.113784                    
P 26  -7677.936998  25074.599407  -1369.001946    -98.010389                    
V 26  -2592.832653    435.734650  32751.262282      -.177837                    
P 27 -19097.982260  -7290.011567  17745.054699     89.022286                    
V 27  19951.794353  -7228.077157  18929.965458       .020645                    
P 28 -20958.214491 -10213.397059 -12734.709732      9.423055                    
V 28  -9407.265859 -13767.222088  25542.591545      -.008889                    
P 29 -10172.194481  24017.895040   4134.840834    317.065132                    
V 29   -622.075894  -5419.840362  32004.181559       .159734                    
P 30  17902.994608  19652.913559  -1682.702447     22.796595                    
V 30  -3500.766525    988.545796 -31254.892533       .011721                    
P 31  25226.489498  -7944.833736   2913.046828     -3.057978                    
V 31   3981.869415   1891.049365 -31437.794914       .053685                    
EOF
